SINOD-D 1               
1 40968U 15058E   26068.70671034  .00006216  00000+0  50695-3 0  9998
2 40968  64.7759 210.2419 0117281  93.1753 268.2787 14.95054547101785
STARLINK-3737           
1 52114U 22029AC  26068.35405079 -.00000019  00000+0  16875-4 0  9994
2 52114  53.2168  80.6254 0001247  81.4219 278.6914 15.08848811220739
